{"type": "FeatureCollection", "features": [ {"type": "Feature", "properties": {"norad_id": 57401, "name": "TIANMU-1 09", "group": "weather", "lat": 65.08495717638739, "lon": 28.38848167911104, "alt_km": 470.4755555126476, "timestamp": "2025-12-21T09:37:22.291603+00:00", "meta": {"OBJECT_NAME": "TIANMU-1 09", "OBJECT_ID": "2023-101C", "EPOCH": "2025-12-21T04:37:13.665792", "MEAN_MOTION": 15.28196935, "ECCENTRICITY": 0.0006457, "INCLINATION": 97.2809, "RA_OF_ASC_NODE": 44.1616, "ARG_OF_PERICENTER": 60.6366, "MEAN_ANOMALY": 299.5518, "EPHEMERIS_TYPE": 0, "CLASSIFICATION_TYPE": "U", "NORAD_CAT_ID": 57401, "ELEMENT_SET_NO": 999, "REV_AT_EPOCH": 13444, "BSTAR": 0.00018885, "MEAN_MOTION_DOT": 5.119e-05, "MEAN_MOTION_DDOT": 0}, "tle": {"line1": "1 57401U 23101C   25355.19251928  .00005119  00000+0  18885-3 0  9999", "line2": "2 57401  97.2809  44.1616 0006457  60.6366 299.5518 15.28196935134449"}}, "geometry": {"type": "Point", "coordinates": [28.38848167911104, 65.08495717638739]}}, {"type": "Feature", "properties": {"norad_id": 57402, "name": "TIANMU-1 10", "group": "weather", "lat": -57.148806979850335, "lon": -146.20877373181787, "alt_km": 493.9748137202314, "timestamp": "2025-12-21T09:37:22.291614+00:00", "meta": {"OBJECT_NAME": "TIANMU-1 10", "OBJECT_ID": "2023-101D", "EPOCH": "2025-12-21T03:52:16.160160", "MEAN_MOTION": 15.28188085, "ECCENTRICITY": 0.0008196, "INCLINATION": 97.289, "RA_OF_ASC_NODE": 44.9899, "ARG_OF_PERICENTER": 59.0573, "MEAN_ANOMALY": 301.1472, "EPHEMERIS_TYPE": 0, "CLASSIFICATION_TYPE": "U", "NORAD_CAT_ID": 57402, "ELEMENT_SET_NO": 999, "REV_AT_EPOCH": 13443, "BSTAR": 0.00019249, "MEAN_MOTION_DOT": 5.219e-05, "MEAN_MOTION_DDOT": 0}, "tle": {"line1": "1 57402U 23101D   25355.16129815  .00005219  00000+0  19249-3 0  9992", "line2": "2 57402  97.2890  44.9899 0008196  59.0573 301.1472 15.28188085134430"}}, "geometry": {"type": "Point", "coordinates": [-146.20877373181787, -57.148806979850335]}}, {"type": "Feature", "properties": {"norad_id": 57490, "name": "FENGYUN 3F", "group": "weather", "lat": 7.943864762196926, "lon": 62.3288340727552, "alt_km": 827.6764575851766, "timestamp": "2025-12-21T09:37:22.291624+00:00", "meta": {"OBJECT_NAME": "FENGYUN 3F", "OBJECT_ID": "2023-111A", "EPOCH": "2025-12-21T04:30:41.251680", "MEAN_MOTION": 14.1989563, "ECCENTRICITY": 7.66e-05, "INCLINATION": 98.7073, "RA_OF_ASC_NODE": 63.3447, "ARG_OF_PERICENTER": 114.3941, "MEAN_ANOMALY": 245.7316, "EPHEMERIS_TYPE": 0, "CLASSIFICATION_TYPE": "U", "NORAD_CAT_ID": 57490, "ELEMENT_SET_NO": 999, "REV_AT_EPOCH": 12360, "BSTAR": 4.9245e-05, "MEAN_MOTION_DOT": 6.1e-07, "MEAN_MOTION_DDOT": 0}, "tle": {"line1": "1 57490U 23111A   25355.18797745  .00000061  00000+0  49245-4 0  9995", "line2": "2 57490  98.7073  63.3447 0000766 114.3941 245.7316 14.19895630123606"}}, "geometry": {"type": "Point", "coordinates": [62.3288340727552, 7.943864762196926]}}, {"type": "Feature", "properties": {"norad_id": 58584, "name": "ARKTIKA-M 2", "group": "weather", "lat": 51.764955089885184, "lon": -146.18138542012454, "alt_km": 30069.698834595085, "timestamp": "2025-12-21T09:37:22.291636+00:00", "meta": {"OBJECT_NAME": "ARKTIKA-M 2", "OBJECT_ID": "2023-198A", "EPOCH": "2025-12-20T07:20:06.590112", "MEAN_MOTION": 2.00602824, "ECCENTRICITY": 0.68654675, "INCLINATION": 63.225, "RA_OF_ASC_NODE": 174.0676, "ARG_OF_PERICENTER": 268.0739, "MEAN_ANOMALY": 18.8406, "EPHEMERIS_TYPE": 0, "CLASSIFICATION_TYPE": "U", "NORAD_CAT_ID": 58584, "ELEMENT_SET_NO": 999, "REV_AT_EPOCH": 1473, "BSTAR": 0, "MEAN_MOTION_DOT": 2.01e-06, "MEAN_MOTION_DDOT": 0}, "tle": {"line1": "1 58584U 23198A   25354.30563183  .00000201  00000+0  00000+0 0  9992", "line2": "2 58584  63.2250 174.0676 6865467 268.0739  18.8406  2.00602824 14734"}}, "geometry": {"type": "Point", "coordinates": [-146.18138542012454, 51.764955089885184]}}, {"type": "Feature", "properties": {"norad_id": 58645, "name": "TIANMU-1 11", "group": "weather", "lat": -51.026454497412224, "lon": 24.0649201100231, "alt_km": 494.4293877955606, "timestamp": "2025-12-21T09:37:22.291652+00:00", "meta": {"OBJECT_NAME": "TIANMU-1 11", "OBJECT_ID": "2023-205A", "EPOCH": "2025-12-21T03:32:53.981664", "MEAN_MOTION": 15.24692283, "ECCENTRICITY": 0.0007531, "INCLINATION": 97.3594, "RA_OF_ASC_NODE": 14.6234, "ARG_OF_PERICENTER": 274.6596, "MEAN_ANOMALY": 85.3781, "EPHEMERIS_TYPE": 0, "CLASSIFICATION_TYPE": "U", "NORAD_CAT_ID": 58645, "ELEMENT_SET_NO": 999, "REV_AT_EPOCH": 11037, "BSTAR": 0.00017425, "MEAN_MOTION_DOT": 4.239e-05, "MEAN_MOTION_DDOT": 0}, "tle": {"line1": "1 58645U 23205A   25355.14784701  .00004239  00000+0  17425-3 0  9991", "line2": "2 58645  97.3594  14.6234 0007531 274.6596  85.3781 15.24692283110378"}}, "geometry": {"type": "Point", "coordinates": [24.0649201100231, -51.026454497412224]}}, {"type": "Feature", "properties": {"norad_id": 58646, "name": "TIANMU-1 12", "group": "weather", "lat": 22.73958241435197, "lon": -162.22066833908767, "alt_km": 492.1427922399871, "timestamp": "2025-12-21T09:37:22.291662+00:00", "meta": {"OBJECT_NAME": "TIANMU-1 12", "OBJECT_ID": "2023-205B", "EPOCH": "2025-12-21T04:12:37.518336", "MEAN_MOTION": 15.24577894, "ECCENTRICITY": 0.0005835, "INCLINATION": 97.3582, "RA_OF_ASC_NODE": 14.4531, "ARG_OF_PERICENTER": 253.0339, "MEAN_ANOMALY": 107.0259, "EPHEMERIS_TYPE": 0, "CLASSIFICATION_TYPE": "U", "NORAD_CAT_ID": 58646, "ELEMENT_SET_NO": 999, "REV_AT_EPOCH": 11036, "BSTAR": 0.00017431, "MEAN_MOTION_DOT": 4.225e-05, "MEAN_MOTION_DDOT": 0}, "tle": {"line1": "1 58646U 23205B   25355.17543424  .00004225  00000+0  17431-3 0  9992", "line2": "2 58646  97.3582  14.4531 0005835 253.0339 107.0259 15.24577894110366"}}, "geometry": {"type": "Point", "coordinates": [-162.22066833908767, 22.73958241435197]}}, {"type": "Feature", "properties": {"norad_id": 58647, "name": "TIANMU-1 13", "group": "weather", "lat": -25.46589233360149, "lon": 18.409112164391317, "alt_km": 498.8083376359218, "timestamp": "2025-12-21T09:37:22.291673+00:00", "meta": {"OBJECT_NAME": "TIANMU-1 13", "OBJECT_ID": "2023-205C", "EPOCH": "2025-12-21T03:26:04.864704", "MEAN_MOTION": 15.2462078, "ECCENTRICITY": 0.0006326, "INCLINATION": 97.361, "RA_OF_ASC_NODE": 14.626, "ARG_OF_PERICENTER": 229.7197, "MEAN_ANOMALY": 130.3489, "EPHEMERIS_TYPE": 0, "CLASSIFICATION_TYPE": "U", "NORAD_CAT_ID": 58647, "ELEMENT_SET_NO": 999, "REV_AT_EPOCH": 11035, "BSTAR": 0.00018498, "MEAN_MOTION_DOT": 4.495e-05, "MEAN_MOTION_DDOT": 0}, "tle": {"line1": "1 58647U 23205C   25355.14311186  .00004495  00000+0  18498-3 0  9991", "line2": "2 58647  97.3610  14.6260 0006326 229.7197 130.3489 15.24620780110354"}}, "geometry": {"type": "Point", "coordinates": [18.409112164391317, -25.46589233360149]}}, {"type": "Feature", "properties": {"norad_id": 58648, "name": "TIANMU-1 14", "group": "weather", "lat": 63.82976969702973, "lon": -1.0172810609388145, "alt_km": 490.56477559296764, "timestamp": "2025-12-21T09:37:22.291683+00:00", "meta": {"OBJECT_NAME": "TIANMU-1 14", "OBJECT_ID": "2023-205D", "EPOCH": "2025-12-21T04:36:49.205952", "MEAN_MOTION": 15.24604481, "ECCENTRICITY": 0.0007076, "INCLINATION": 97.3541, "RA_OF_ASC_NODE": 14.0152, "ARG_OF_PERICENTER": 235.7773, "MEAN_ANOMALY": 124.2795, "EPHEMERIS_TYPE": 0, "CLASSIFICATION_TYPE": "U", "NORAD_CAT_ID": 58648, "ELEMENT_SET_NO": 999, "REV_AT_EPOCH": 11036, "BSTAR": 0.00018138, "MEAN_MOTION_DOT": 4.404e-05, "MEAN_MOTION_DDOT": 0}, "tle": {"line1": "1 58648U 23205D   25355.19223618  .00004404  00000+0  18138-3 0  9990", "line2": "2 58648  97.3541  14.0152 0007076 235.7773 124.2795 15.24604481110365"}}, "geometry": {"type": "Point", "coordinates": [-1.0172810609388145, 63.82976969702973]}}, {"type": "Feature", "properties": {"norad_id": 58660, "name": "TIANMU-1 19", "group": "weather", "lat": 63.57054359126278, "lon": 91.17997696841498, "alt_km": 478.33836465767763, "timestamp": "2025-12-21T09:37:22.291694+00:00", "meta": {"OBJECT_NAME": "TIANMU-1 19", "OBJECT_ID": "2023-208A", "EPOCH": "2025-12-21T04:37:33.441024", "MEAN_MOTION": 15.27990686, "ECCENTRICITY": 0.000452, "INCLINATION": 97.4395, "RA_OF_ASC_NODE": 106.214, "ARG_OF_PERICENTER": 215.7413, "MEAN_ANOMALY": 144.3524, "EPHEMERIS_TYPE": 0, "CLASSIFICATION_TYPE": "U", "NORAD_CAT_ID": 58660, "ELEMENT_SET_NO": 999, "REV_AT_EPOCH": 11011, "BSTAR": 0.00024992, "MEAN_MOTION_DOT": 6.751e-05, "MEAN_MOTION_DDOT": 0}, "tle": {"line1": "1 58660U 23208A   25355.19274816  .00006751  00000+0  24992-3 0  9995", "line2": "2 58660  97.4395 106.2140 0004520 215.7413 144.3524 15.27990686110112"}}, "geometry": {"type": "Point", "coordinates": [91.17997696841498, 63.57054359126278]}}, {"type": "Feature", "properties": {"norad_id": 58661, "name": "TIANMU-1 20", "group": "weather", "lat": 3.9684529022885173, "lon": -72.60307049914329, "alt_km": 478.1525220751382, "timestamp": "2025-12-21T09:37:22.291704+00:00", "meta": {"OBJECT_NAME": "TIANMU-1 20", "OBJECT_ID": "2023-208B", "EPOCH": "2025-12-21T04:08:39.133824", "MEAN_MOTION": 15.29180853, "ECCENTRICITY": 0.0006601, "INCLINATION": 97.4332, "RA_OF_ASC_NODE": 106.6499, "ARG_OF_PERICENTER": 230.6184, "MEAN_ANOMALY": 129.4472, "EPHEMERIS_TYPE": 0, "CLASSIFICATION_TYPE": "U", "NORAD_CAT_ID": 58661, "ELEMENT_SET_NO": 999, "REV_AT_EPOCH": 11018, "BSTAR": 0.00023714, "MEAN_MOTION_DOT": 6.643e-05, "MEAN_MOTION_DDOT": 0}, "tle": {"line1": "1 58661U 23208B   25355.17267516  .00006643  00000+0  23714-3 0  9994", "line2": "2 58661  97.4332 106.6499 0006601 230.6184 129.4472 15.29180853110180"}}, "geometry": {"type": "Point", "coordinates": [-72.60307049914329, 3.9684529022885173]}}]}